{"type": "FeatureCollection", "features": [ {"type": "Feature", "properties": {"norad_id": 39574, "name": "GPM-CORE", "group": "resource", "lat": 2.5137807841893376, "lon": 48.69851596504035, "alt_km": 432.26715582615907, "timestamp": "2025-12-07T14:37:04.866392+00:00", "meta": {"OBJECT_NAME": "GPM-CORE", "OBJECT_ID": "2014-009C", "EPOCH": "2025-12-06T22:19:18.615648", "MEAN_MOTION": 15.4534838, "ECCENTRICITY": 0.00105369, "INCLINATION": 64.9743, "RA_OF_ASC_NODE": 232.1492, "ARG_OF_PERICENTER": 269.5357, "MEAN_ANOMALY": 90.4576, "EPHEMERIS_TYPE": 0, "CLASSIFICATION_TYPE": "U", "NORAD_CAT_ID": 39574, "ELEMENT_SET_NO": 999, "REV_AT_EPOCH": 66811, "BSTAR": 0.00044820888, "MEAN_MOTION_DOT": 0.0002136, "MEAN_MOTION_DDOT": 0}, "tle": {"line1": "1 39574U 14009C   25340.93007657  .00021360  00000+0  44821-3 0  9996", "line2": "2 39574  64.9743 232.1492 0010536 269.5357  90.4576 15.45348380668112"}}, "geometry": {"type": "Point", "coordinates": [48.69851596504035, 2.5137807841893376]}}, {"type": "Feature", "properties": {"norad_id": 39634, "name": "SENTINEL-1A", "group": "resource", "lat": -8.045822127988801, "lon": 165.76107253636602, "alt_km": 699.8939545516523, "timestamp": "2025-12-07T14:37:04.866402+00:00", "meta": {"OBJECT_NAME": "SENTINEL-1A", "OBJECT_ID": "2014-016A", "EPOCH": "2025-12-06T22:56:52.090080", "MEAN_MOTION": 14.59198895, "ECCENTRICITY": 0.00012454, "INCLINATION": 98.1803, "RA_OF_ASC_NODE": 346.2829, "ARG_OF_PERICENTER": 89.3819, "MEAN_ANOMALY": 270.7523, "EPHEMERIS_TYPE": 0, "CLASSIFICATION_TYPE": "U", "NORAD_CAT_ID": 39634, "ELEMENT_SET_NO": 999, "REV_AT_EPOCH": 62198, "BSTAR": 8.7437411e-05, "MEAN_MOTION_DOT": 3.66e-06, "MEAN_MOTION_DDOT": 0}, "tle": {"line1": "1 39634U 14016A   25340.95615845  .00000366  00000+0  87437-4 0  9991", "line2": "2 39634  98.1803 346.2829 0001245  89.3819 270.7523 14.59198895621981"}}, "geometry": {"type": "Point", "coordinates": [165.76107253636602, -8.045822127988801]}}, {"type": "Feature", "properties": {"norad_id": 39731, "name": "KAZEOSAT 1", "group": "resource", "lat": 60.271688662487975, "lon": -111.47545754307005, "alt_km": 745.1271168932672, "timestamp": "2025-12-07T14:37:04.866412+00:00", "meta": {"OBJECT_NAME": "KAZEOSAT 1", "OBJECT_ID": "2014-024A", "EPOCH": "2025-12-06T21:25:03.181152", "MEAN_MOTION": 14.42057369, "ECCENTRICITY": 0.00010729, "INCLINATION": 98.3442, "RA_OF_ASC_NODE": 52.9309, "ARG_OF_PERICENTER": 99.7315, "MEAN_ANOMALY": 260.3996, "EPHEMERIS_TYPE": 0, "CLASSIFICATION_TYPE": "U", "NORAD_CAT_ID": 39731, "ELEMENT_SET_NO": 999, "REV_AT_EPOCH": 61084, "BSTAR": 0.0001564987, "MEAN_MOTION_DOT": 4.71e-06, "MEAN_MOTION_DDOT": 0}, "tle": {"line1": "1 39731U 14024A   25340.89239793  .00000471  00000+0  15650-3 0  9999", "line2": "2 39731  98.3442  52.9309 0001072  99.7315 260.3996 14.42057369610842"}}, "geometry": {"type": "Point", "coordinates": [-111.47545754307005, 60.271688662487975]}}, {"type": "Feature", "properties": {"norad_id": 39766, "name": "ALOS-2", "group": "resource", "lat": 32.52802699508385, "lon": 71.432810238743, "alt_km": 628.7788485672027, "timestamp": "2025-12-07T14:37:04.866422+00:00", "meta": {"OBJECT_NAME": "ALOS-2", "OBJECT_ID": "2014-029A", "EPOCH": "2025-12-06T22:14:16.221696", "MEAN_MOTION": 14.79455384, "ECCENTRICITY": 0.00014349, "INCLINATION": 97.9234, "RA_OF_ASC_NODE": 75.8559, "ARG_OF_PERICENTER": 105.3258, "MEAN_ANOMALY": 254.8112, "EPHEMERIS_TYPE": 0, "CLASSIFICATION_TYPE": "U", "NORAD_CAT_ID": 39766, "ELEMENT_SET_NO": 999, "REV_AT_EPOCH": 62315, "BSTAR": 0.000430739, "MEAN_MOTION_DOT": 3.165e-05, "MEAN_MOTION_DDOT": 0}, "tle": {"line1": "1 39766U 14029A   25340.92657664  .00003165  00000+0  43074-3 0  9991", "line2": "2 39766  97.9234  75.8559 0001434 105.3258 254.8112 14.79455384623152"}}, "geometry": {"type": "Point", "coordinates": [71.432810238743, 32.52802699508385]}}, {"type": "Feature", "properties": {"norad_id": 40010, "name": "KAZEOSAT 2", "group": "resource", "lat": -18.10976052838114, "lon": 3.701812155962975, "alt_km": 613.573972105839, "timestamp": "2025-12-07T14:37:04.866432+00:00", "meta": {"OBJECT_NAME": "KAZEOSAT 2", "OBJECT_ID": "2014-033A", "EPOCH": "2025-12-06T19:56:28.162464", "MEAN_MOTION": 14.85153465, "ECCENTRICITY": 0.00074041, "INCLINATION": 97.5516, "RA_OF_ASC_NODE": 185.4505, "ARG_OF_PERICENTER": 228.4499, "MEAN_ANOMALY": 131.6082, "EPHEMERIS_TYPE": 0, "CLASSIFICATION_TYPE": "U", "NORAD_CAT_ID": 40010, "ELEMENT_SET_NO": 999, "REV_AT_EPOCH": 62040, "BSTAR": 0.00017494673, "MEAN_MOTION_DOT": 1.448e-05, "MEAN_MOTION_DDOT": 0}, "tle": {"line1": "1 40010U 14033A   25340.83088151  .00001448  00000+0  17495-3 0  9999", "line2": "2 40010  97.5516 185.4505 0007404 228.4499 131.6082 14.85153465620406"}}, "geometry": {"type": "Point", "coordinates": [3.701812155962975, -18.10976052838114]}}, {"type": "Feature", "properties": {"norad_id": 40011, "name": "HODOYOSHI-4", "group": "resource", "lat": -62.6236684756132, "lon": -24.07756087582234, "alt_km": 598.6757728409793, "timestamp": "2025-12-07T14:37:04.866443+00:00", "meta": {"OBJECT_NAME": "HODOYOSHI-4", "OBJECT_ID": "2014-033B", "EPOCH": "2025-12-06T21:22:51.951648", "MEAN_MOTION": 14.87449343, "ECCENTRICITY": 0.00228438, "INCLINATION": 97.5416, "RA_OF_ASC_NODE": 170.0633, "ARG_OF_PERICENTER": 220.5471, "MEAN_ANOMALY": 139.4045, "EPHEMERIS_TYPE": 0, "CLASSIFICATION_TYPE": "U", "NORAD_CAT_ID": 40011, "ELEMENT_SET_NO": 999, "REV_AT_EPOCH": 62021, "BSTAR": 0.00037128745, "MEAN_MOTION_DOT": 3.326e-05, "MEAN_MOTION_DDOT": 0}, "tle": {"line1": "1 40011U 14033B   25340.89087907  .00003326  00000+0  37129-3 0  9997", "line2": "2 40011  97.5416 170.0633 0022843 220.5471 139.4045 14.87449343620214"}}, "geometry": {"type": "Point", "coordinates": [-24.07756087582234, -62.6236684756132]}}, {"type": "Feature", "properties": {"norad_id": 40013, "name": "DEIMOS-2", "group": "resource", "lat": -59.78379374900053, "lon": -129.1557058125423, "alt_km": 596.537575175902, "timestamp": "2025-12-07T14:37:04.866453+00:00", "meta": {"OBJECT_NAME": "DEIMOS-2", "OBJECT_ID": "2014-033D", "EPOCH": "2025-12-06T19:35:11.734656", "MEAN_MOTION": 14.9293486, "ECCENTRICITY": 9.883e-05, "INCLINATION": 97.6071, "RA_OF_ASC_NODE": 216.8114, "ARG_OF_PERICENTER": 94.5291, "MEAN_ANOMALY": 265.6042, "EPHEMERIS_TYPE": 0, "CLASSIFICATION_TYPE": "U", "NORAD_CAT_ID": 40013, "ELEMENT_SET_NO": 999, "REV_AT_EPOCH": 60901, "BSTAR": 0.00044661956, "MEAN_MOTION_DOT": 4.581e-05, "MEAN_MOTION_DDOT": 0}, "tle": {"line1": "1 40013U 14033D   25340.81610804  .00004581  00000+0  44662-3 0  9993", "line2": "2 40013  97.6071 216.8114 0000988  94.5291 265.6042 14.92934860609015"}}, "geometry": {"type": "Point", "coordinates": [-129.1557058125423, -59.78379374900053]}}, {"type": "Feature", "properties": {"norad_id": 40015, "name": "HODOYOSHI-3", "group": "resource", "lat": -37.544473854455006, "lon": -38.23823395912002, "alt_km": 605.7060408892703, "timestamp": "2025-12-07T14:37:04.866463+00:00", "meta": {"OBJECT_NAME": "HODOYOSHI-3", "OBJECT_ID": "2014-033F", "EPOCH": "2025-12-06T21:27:46.890144", "MEAN_MOTION": 14.84775356, "ECCENTRICITY": 0.0031828, "INCLINATION": 97.6196, "RA_OF_ASC_NODE": 146.9837, "ARG_OF_PERICENTER": 267.9554, "MEAN_ANOMALY": 91.8016, "EPHEMERIS_TYPE": 0, "CLASSIFICATION_TYPE": "U", "NORAD_CAT_ID": 40015, "ELEMENT_SET_NO": 999, "REV_AT_EPOCH": 61908, "BSTAR": 0.00035828186, "MEAN_MOTION_DOT": 3.014e-05, "MEAN_MOTION_DDOT": 0}, "tle": {"line1": "1 40015U 14033F   25340.89429271  .00003014  00000+0  35828-3 0  9993", "line2": "2 40015  97.6196 146.9837 0031828 267.9554  91.8016 14.84775356619087"}}, "geometry": {"type": "Point", "coordinates": [-38.23823395912002, -37.544473854455006]}}, {"type": "Feature", "properties": {"norad_id": 40053, "name": "SPOT 7", "group": "resource", "lat": 24.109863849482718, "lon": 40.152373199877474, "alt_km": 689.8503155927856, "timestamp": "2025-12-07T14:37:04.866474+00:00", "meta": {"OBJECT_NAME": "SPOT 7", "OBJECT_ID": "2014-034A", "EPOCH": "2025-12-06T22:04:00.502464", "MEAN_MOTION": 14.60722399, "ECCENTRICITY": 0.0001525, "INCLINATION": 98.0914, "RA_OF_ASC_NODE": 43.1289, "ARG_OF_PERICENTER": 94.7659, "MEAN_ANOMALY": 265.3716, "EPHEMERIS_TYPE": 0, "CLASSIFICATION_TYPE": "U", "NORAD_CAT_ID": 40053, "ELEMENT_SET_NO": 999, "REV_AT_EPOCH": 60906, "BSTAR": 0.00022965098, "MEAN_MOTION_DOT": 1.074e-05, "MEAN_MOTION_DDOT": 0}, "tle": {"line1": "1 40053U 14034A   25340.91945026  .00001074  00000+0  22965-3 0  9992", "line2": "2 40053  98.0914  43.1289 0001525  94.7659 265.3716 14.60722399609069"}}, "geometry": {"type": "Point", "coordinates": [40.152373199877474, 24.109863849482718]}}, {"type": "Feature", "properties": {"norad_id": 40072, "name": "SKYSAT-B", "group": "resource", "lat": -9.090333931202668, "lon": 103.69581726227284, "alt_km": 606.873024171673, "timestamp": "2025-12-07T14:37:04.866484+00:00", "meta": {"OBJECT_NAME": "SKYSAT-B", "OBJECT_ID": "2014-037D", "EPOCH": "2025-12-06T20:00:34.799040", "MEAN_MOTION": 14.87293724, "ECCENTRICITY": 0.00056593, "INCLINATION": 98.3602, "RA_OF_ASC_NODE": 284.228, "ARG_OF_PERICENTER": 168.1391, "MEAN_ANOMALY": 191.9957, "EPHEMERIS_TYPE": 0, "CLASSIFICATION_TYPE": "U", "NORAD_CAT_ID": 40072, "ELEMENT_SET_NO": 999, "REV_AT_EPOCH": 61736, "BSTAR": 0.00035057257, "MEAN_MOTION_DOT": 3.103e-05, "MEAN_MOTION_DDOT": 0}, "tle": {"line1": "1 40072U 14037D   25340.83373610  .00003103  00000+0  35057-3 0  9992", "line2": "2 40072  98.3602 284.2280 0005659 168.1391 191.9957 14.87293724617364"}}, "geometry": {"type": "Point", "coordinates": [103.69581726227284, -9.090333931202668]}}]}